CCSDS_OMM_VERS = 2.0
CREATION_DATE  = 
ORIGINATOR     = 

OBJECT_NAME    = STARLINK-36344
OBJECT_ID      = 2026-025T
CENTER_NAME    = EARTH
REF_FRAME      = TEME
TIME_SYSTEM    = UTC
MEAN_ELEMENT_THEORY = SGP/SGP4

EPOCH          = 2026-03-07T06:24:22.842720
MEAN_MOTION    = 15.75238713
ECCENTRICITY   = .00015426
INCLINATION    = 97.2840
RA_OF_ASC_NODE = 177.8009
ARG_OF_PERICENTER = 106.6761
MEAN_ANOMALY   = 253.4674

EPHEMERIS_TYPE = 0
CLASSIFICATION_TYPE = U
NORAD_CAT_ID   = 67710
ELEMENT_SET_NO = 999
REV_AT_EPOCH   = 557
BSTAR          = .16898461E-2
MEAN_MOTION_DOT = .260305E-2
MEAN_MOTION_DDOT = 0

CCSDS_OMM_VERS = 2.0
CREATION_DATE  = 
ORIGINATOR     = 

OBJECT_NAME    = STARLINK-36687
OBJECT_ID      = 2026-025U
CENTER_NAME    = EARTH
REF_FRAME      = TEME
TIME_SYSTEM    = UTC
MEAN_ELEMENT_THEORY = SGP/SGP4

EPOCH          = 2026-03-07T05:53:49.238592
MEAN_MOTION    = 15.81005478
ECCENTRICITY   = .000109
INCLINATION    = 97.2851
RA_OF_ASC_NODE = 177.8296
ARG_OF_PERICENTER = 81.1221
MEAN_ANOMALY   = 279.0171

EPHEMERIS_TYPE = 0
CLASSIFICATION_TYPE = U
NORAD_CAT_ID   = 67711
ELEMENT_SET_NO = 999
REV_AT_EPOCH   = 557
BSTAR          = .26076124E-2
MEAN_MOTION_DOT = .535924E-2
MEAN_MOTION_DDOT = 0

CCSDS_OMM_VERS = 2.0
CREATION_DATE  = 
ORIGINATOR     = 

OBJECT_NAME    = STARLINK-36705
OBJECT_ID      = 2026-025V
CENTER_NAME    = EARTH
REF_FRAME      = TEME
TIME_SYSTEM    = UTC
MEAN_ELEMENT_THEORY = SGP/SGP4

EPOCH          = 2026-03-07T06:36:04.278528
MEAN_MOTION    = 15.75239531
ECCENTRICITY   = .00014301
INCLINATION    = 97.2847
RA_OF_ASC_NODE = 177.7860
ARG_OF_PERICENTER = 71.8573
MEAN_ANOMALY   = 288.2847

EPHEMERIS_TYPE = 0
CLASSIFICATION_TYPE = U
NORAD_CAT_ID   = 67712
ELEMENT_SET_NO = 999
REV_AT_EPOCH   = 556
BSTAR          = .17059157E-2
MEAN_MOTION_DOT = .262871E-2
MEAN_MOTION_DDOT = 0

CCSDS_OMM_VERS = 2.0
CREATION_DATE  = 
ORIGINATOR     = 

OBJECT_NAME    = STARLINK-36708
OBJECT_ID      = 2026-025W
CENTER_NAME    = EARTH
REF_FRAME      = TEME
TIME_SYSTEM    = UTC
MEAN_ELEMENT_THEORY = SGP/SGP4

EPOCH          = 2026-03-07T06:00:00.999648
MEAN_MOTION    = 15.62629476
ECCENTRICITY   = .00015935
INCLINATION    = 97.2844
RA_OF_ASC_NODE = 177.8064
ARG_OF_PERICENTER = 61.6367
MEAN_ANOMALY   = 254.6538

EPHEMERIS_TYPE = 0
CLASSIFICATION_TYPE = U
NORAD_CAT_ID   = 67713
ELEMENT_SET_NO = 999
REV_AT_EPOCH   = 552
BSTAR          = -.25922008E-1
MEAN_MOTION_DOT = -.2030229E-1
MEAN_MOTION_DDOT = 0

CCSDS_OMM_VERS = 2.0
CREATION_DATE  = 
ORIGINATOR     = 

OBJECT_NAME    = STARLINK-36702
OBJECT_ID      = 2026-025X
CENTER_NAME    = EARTH
REF_FRAME      = TEME
TIME_SYSTEM    = UTC
MEAN_ELEMENT_THEORY = SGP/SGP4

EPOCH          = 2026-03-07T06:00:00.999648
MEAN_MOTION    = 15.75156816
ECCENTRICITY   = .00008529
INCLINATION    = 97.2852
RA_OF_ASC_NODE = 177.8440
ARG_OF_PERICENTER = 82.4182
MEAN_ANOMALY   = 317.7965

EPHEMERIS_TYPE = 0
CLASSIFICATION_TYPE = U
NORAD_CAT_ID   = 67714
ELEMENT_SET_NO = 999
REV_AT_EPOCH   = 526
BSTAR          = .47044117E-3
MEAN_MOTION_DOT = .70518E-3
MEAN_MOTION_DDOT = 0

CCSDS_OMM_VERS = 2.0
CREATION_DATE  = 
ORIGINATOR     = 

OBJECT_NAME    = STARLINK-36718
OBJECT_ID      = 2026-025Y
CENTER_NAME    = EARTH
REF_FRAME      = TEME
TIME_SYSTEM    = UTC
MEAN_ELEMENT_THEORY = SGP/SGP4

EPOCH          = 2026-03-07T07:03:20.809440
MEAN_MOTION    = 15.81084233
ECCENTRICITY   = .00016561
INCLINATION    = 97.2868
RA_OF_ASC_NODE = 177.9135
ARG_OF_PERICENTER = 113.6061
MEAN_ANOMALY   = 246.5381

EPHEMERIS_TYPE = 0
CLASSIFICATION_TYPE = U
NORAD_CAT_ID   = 67715
ELEMENT_SET_NO = 999
REV_AT_EPOCH   = 557
BSTAR          = .24302679E-2
MEAN_MOTION_DOT = .499084E-2
MEAN_MOTION_DDOT = 0

CCSDS_OMM_VERS = 2.0
CREATION_DATE  = 
ORIGINATOR     = 

OBJECT_NAME    = STARLINK-36715
OBJECT_ID      = 2026-025Z
CENTER_NAME    = EARTH
REF_FRAME      = TEME
TIME_SYSTEM    = UTC
MEAN_ELEMENT_THEORY = SGP/SGP4

EPOCH          = 2026-03-07T07:06:18.714816
MEAN_MOTION    = 15.80954461
ECCENTRICITY   = .00013253
INCLINATION    = 97.2860
RA_OF_ASC_NODE = 177.9135
ARG_OF_PERICENTER = 84.5481
MEAN_ANOMALY   = 275.5938

EPHEMERIS_TYPE = 0
CLASSIFICATION_TYPE = U
NORAD_CAT_ID   = 67716
ELEMENT_SET_NO = 999
REV_AT_EPOCH   = 557
BSTAR          = .15309505E-2
MEAN_MOTION_DOT = .30554E-2
MEAN_MOTION_DDOT = 0

CCSDS_OMM_VERS = 2.0
CREATION_DATE  = 
ORIGINATOR     = 

OBJECT_NAME    = STARLINK-36385
OBJECT_ID      = 2026-025AA
CENTER_NAME    = EARTH
REF_FRAME      = TEME
TIME_SYSTEM    = UTC
MEAN_ELEMENT_THEORY = SGP/SGP4

EPOCH          = 2026-03-07T05:44:10.136544
MEAN_MOTION    = 15.81079878
ECCENTRICITY   = .0001003
INCLINATION    = 97.2875
RA_OF_ASC_NODE = 177.8377
ARG_OF_PERICENTER = 77.1328
MEAN_ANOMALY   = 283.0053

EPHEMERIS_TYPE = 0
CLASSIFICATION_TYPE = U
NORAD_CAT_ID   = 67717
ELEMENT_SET_NO = 999
REV_AT_EPOCH   = 556
BSTAR          = .27044816E-2
MEAN_MOTION_DOT = .559256E-2
MEAN_MOTION_DDOT = 0

CCSDS_OMM_VERS = 2.0
CREATION_DATE  = 
ORIGINATOR     = 

OBJECT_NAME    = CZ-2F DEB
OBJECT_ID      = 2026-024E
CENTER_NAME    = EARTH
REF_FRAME      = TEME
TIME_SYSTEM    = UTC
MEAN_ELEMENT_THEORY = SGP/SGP4

EPOCH          = 2026-03-07T06:01:32.121408
MEAN_MOTION    = 15.24634798
ECCENTRICITY   = .02347408
INCLINATION    = 50.3190
RA_OF_ASC_NODE = 30.6698
ARG_OF_PERICENTER = 270.3052
MEAN_ANOMALY   = 87.1014

EPHEMERIS_TYPE = 0
CLASSIFICATION_TYPE = U
NORAD_CAT_ID   = 67718
ELEMENT_SET_NO = 999
REV_AT_EPOCH   = 426
BSTAR          = .52120445E-2
MEAN_MOTION_DOT = .300853E-2
MEAN_MOTION_DDOT = 0

CCSDS_OMM_VERS = 2.0
CREATION_DATE  = 
ORIGINATOR     = 

OBJECT_NAME    = CZ-2F DEB
OBJECT_ID      = 2026-024F
CENTER_NAME    = EARTH
REF_FRAME      = TEME
TIME_SYSTEM    = UTC
MEAN_ELEMENT_THEORY = SGP/SGP4

EPOCH          = 2026-03-07T06:55:16.889088
MEAN_MOTION    = 15.02941693
ECCENTRICITY   = .03131411
INCLINATION    = 49.7930
RA_OF_ASC_NODE = 33.5061
ARG_OF_PERICENTER = 261.8114
MEAN_ANOMALY   = 94.7206

EPHEMERIS_TYPE = 0
CLASSIFICATION_TYPE = U
NORAD_CAT_ID   = 67719
ELEMENT_SET_NO = 999
REV_AT_EPOCH   = 388
BSTAR          = .48733074E-2
MEAN_MOTION_DOT = .204994E-2
MEAN_MOTION_DDOT = 0

CCSDS_OMM_VERS = 2.0
CREATION_DATE  = 
ORIGINATOR     = 

OBJECT_NAME    = CZ-2F DEB
OBJECT_ID      = 2026-024G
CENTER_NAME    = EARTH
REF_FRAME      = TEME
TIME_SYSTEM    = UTC
MEAN_ELEMENT_THEORY = SGP/SGP4

EPOCH          = 2026-03-07T06:31:29.642304
MEAN_MOTION    = 15.00185042
ECCENTRICITY   = .03241586
INCLINATION    = 49.8327
RA_OF_ASC_NODE = 34.1952
ARG_OF_PERICENTER = 257.8409
MEAN_ANOMALY   = 98.6052

EPHEMERIS_TYPE = 0
CLASSIFICATION_TYPE = U
NORAD_CAT_ID   = 67720
ELEMENT_SET_NO = 999
REV_AT_EPOCH   = 419
BSTAR          = .47235914E-2
MEAN_MOTION_DOT = .192938E-2
MEAN_MOTION_DDOT = 0

CCSDS_OMM_VERS = 2.0
CREATION_DATE  = 
ORIGINATOR     = 

OBJECT_NAME    = STARLINK-36772
OBJECT_ID      = 2026-026A
CENTER_NAME    = EARTH
REF_FRAME      = TEME
TIME_SYSTEM    = UTC
MEAN_ELEMENT_THEORY = SGP/SGP4

EPOCH          = 2026-03-07T06:00:00.999648
MEAN_MOTION    = 15.56557965
ECCENTRICITY   = .00014204
INCLINATION    = 97.2848
RA_OF_ASC_NODE = 120.7310
ARG_OF_PERICENTER = 80.2850
MEAN_ANOMALY   = 207.1652

EPHEMERIS_TYPE = 0
CLASSIFICATION_TYPE = U
NORAD_CAT_ID   = 67721
ELEMENT_SET_NO = 999
REV_AT_EPOCH   = 492
BSTAR          = -.30886248E-1
MEAN_MOTION_DOT = -.1930706E-1
MEAN_MOTION_DDOT = 0

