STARLINK-36344          
1 67710U 26025T   26066.26693105  .00260305  00000+0  16898-2 0  9997
2 67710  97.2840 177.8009 0001542 106.6761 253.4674 15.75238713  5574
STARLINK-36687          
1 67711U 26025U   26066.24570878  .00535924  00000+0  26076-2 0  9998
2 67711  97.2851 177.8296 0001090  81.1221 279.0171 15.81005478  5574
STARLINK-36705          
1 67712U 26025V   26066.27504952  .00262871  00000+0  17059-2 0  9991
2 67712  97.2847 177.7860 0001430  71.8573 288.2847 15.75239531  5563
STARLINK-36708          
1 67713U 26025W   26066.25001157 -.02030229  00000+0 -25922-1 0  9990
2 67713  97.2844 177.8064 0001593  61.6367 254.6538 15.62629476  5523
STARLINK-36702          
1 67714U 26025X   26066.25001157  .00070518  00000+0  47044-3 0  9993
2 67714  97.2852 177.8440 0000852  82.4182 317.7965 15.75156816  5267
STARLINK-36718          
1 67715U 26025Y   26066.29399085  .00499084  00000+0  24303-2 0  9993
2 67715  97.2868 177.9135 0001656 113.6061 246.5381 15.81084233  5578
STARLINK-36715          
1 67716U 26025Z   26066.29604994  .00305540  00000+0  15310-2 0  9993
2 67716  97.2860 177.9135 0001325  84.5481 275.5938 15.80954461  5574
STARLINK-36385          
1 67717U 26025AA  26066.23900621  .00559256  00000+0  27045-2 0  9997
2 67717  97.2875 177.8377 0001003  77.1328 283.0053 15.81079878  5561
CZ-2F DEB               
1 67718U 26024E   26066.25106622  .00300853  00000+0  52120-2 0  9997
2 67718  50.3190  30.6698 0234740 270.3052  87.1014 15.24634798  4262
CZ-2F DEB               
1 67719U 26024F   26066.28838992  .00204994  00000+0  48733-2 0  9997
2 67719  49.7930  33.5061 0313141 261.8114  94.7206 15.02941693  3885
CZ-2F DEB               
1 67720U 26024G   26066.27187086  .00192938  00000+0  47236-2 0  9990
2 67720  49.8327  34.1952 0324158 257.8409  98.6052 15.00185042  4199
STARLINK-36772          
1 67721U 26026A   26066.25001157 -.01930706  00000+0 -30886-1 0  9993
2 67721  97.2848 120.7310 0001420  80.2850 207.1652 15.56557965  4929
